BEIDOU 3 (C01)          
1 36287U 10001A   21201.89167154 -.00000287  00000-0  00000-0 0  9993
2 36287   1.9230  47.8240 0005809  81.6946 270.7500  1.00270600 42186
BEIDOU 5 (C06)          
1 36828U 10036A   21202.06368167 -.00000066  00000-0  00000+0 0  9993
2 36828  54.1822 179.2813 0114740 235.6759  23.0642  1.00250020 40243
BEIDOU 6 (C04)          
1 37210U 10057A   21202.18266378 -.00000118  00000-0  00000+0 0  9994
2 37210   0.8938  51.1079 0004996 121.9021 351.9358  1.00272225 39311
BEIDOU 7 (C07)          
1 37256U 10068A   21196.23355838 -.00000211  00000-0  00000-0 0  9999
2 37256  50.8122 293.6723 0087182 215.8014 342.7584  1.00244923 38764
BEIDOU 8 (C08)          
1 37384U 11013A   21201.57956411 -.00000201  00000-0  00000-0 0  9999
2 37384  59.8196  57.5637 0054094 207.2041 359.2327  1.00297082 37691
BEIDOU 9 (C09)          
1 37763U 11038A   21202.13118968 -.00000026  00000-0  00000+0 0  9991
2 37763  54.4685 181.7270 0084354 227.0434  31.3450  1.00258513 36675
BEIDOU 10 (C10)         
1 37948U 11073A   21202.21759962 -.00000165  00000-0  00000+0 0  9993
2 37948  50.9040 293.2208 0076879 215.3545 324.4071  1.00286053 35430
BEIDOU 11 (C05)         
1 38091U 12008A   21201.95396398  .00000051  00000-0  00000-0 0  9996
2 38091   1.6214  68.6450 0007600 335.5433 296.8665  1.00271024 34506
BEIDOU 12 (C11)         
1 38250U 12018A   21202.18575311 -.00000087  00000-0  00000+0 0  9993
2 38250  56.7519   4.4977 0020435 245.1912 344.9428  1.86234403 62915
BEIDOU 13 (C12)         
1 38251U 12018B   21201.84146435 -.00000086  00000-0  00000-0 0  9997
2 38251  56.6766   3.8570 0011247 245.3495 158.3420  1.86234277 62918
BEIDOU 15 (C14)         
1 38775U 12050B   21202.02560328 -.00000042  00000-0  00000+0 0  9997
2 38775  55.2239 122.8522 0015174 322.2485  42.3058  1.86232365 60299
BEIDOU 16 (C02)         
1 38953U 12059A   21201.94285536 -.00000181  00000-0  00000-0 0  9994
2 38953   1.1768  83.7025 0011923 301.4019 337.1910  1.00272298 32079
BEIDOU 17 (C31)         
1 40549U 15019A   21201.67955229 -.00000194  00000-0  00000-0 0  9994
2 40549  52.4419 316.6074 0039467 188.1670 132.8543  1.00258822 23106
BEIDOU 18 (C57)         
1 40748U 15037A   21201.40496725 -.00000085  00000-0  00000+0 0  9995
2 40748  55.9345   2.9370 0004067  47.5221 333.3579  1.86233510 40731
BEIDOU 19 (C58)         
1 40749U 15037B   21201.74453902 -.00000087  00000-0  00000-0 0  9996
2 40749  55.9403   2.9157 0003046 349.1584  35.3560  1.86232316 40731
BEIDOU 20 (C18)         
1 40938U 15053A   21201.38222439 -.00000137  00000-0  00000-0 0  9999
2 40938  52.0115 279.6865 0047861 193.8133  59.0565  1.00275365 21379
BEIDOU IGSO-6 (C13)     
1 41434U 16021A   21201.93459985 -.00000160  00000-0  00000+0 0  9991
2 41434  57.6089  56.2865 0038273 211.8914 102.5148  1.00262888 19505
BEIDOU-2 G7 (C03)       
1 41586U 16037A   21201.87252949 -.00000361  00000-0  00000-0 0  9994
2 41586   1.7687  67.8816 0009173  16.5668 278.9459  1.00276343 18811
BEIDOU-3 M1 (C19)       
1 43001U 17069A   21202.19890493 -.00000043  00000-0  00000+0 0  9998
2 43001  55.3773 122.8024 0010934 294.3743 342.3568  1.86231938 25221
BEIDOU-3 M2 (C20)       
1 43002U 17069B   21202.13089017 -.00000043  00000-0  00000+0 0  9995
2 43002  55.3773 122.8400 0009712 314.6400 319.9200  1.86231496 25219
BEIDOU-3 M3 (C27)       
1 43107U 18003A   21201.54368020 -.00000087  00000-0  00000-0 0  9997
2 43107  55.3794   3.9988 0005509  59.4080 347.3484  1.86232641 23979
BEIDOU-3 M4 (C28)       
1 43108U 18003B   21202.06826179 -.00000090  00000-0  00000+0 0  9993
2 43108  55.3737   3.9699 0002147 224.5427 219.0973  1.86232658 23988
BEIDOU-3 M5 (C21)       
1 43207U 18018A   21201.31676561 -.00000037  00000-0  00000-0 0  9996
2 43207  55.3362 122.9571 0007425 332.8993  27.0518  1.86231826 23357
BEIDOU-3 M6 (C22)       
1 43208U 18018B   21200.84650457 -.00000032  00000-0  00000-0 0  9995
2 43208  55.3352 122.9778 0009454 304.7608  55.1411  1.86231716 23342
BEIDOU-3 M7 (C29)       
1 43245U 18029A   21201.67669105 -.00000089  00000-0  00000+0 0  9991
2 43245  55.3090   1.7836 0001294  89.9126 316.2359  1.86232795 22510
BEIDOU-3 M8 (C30)       
1 43246U 18029B   21199.99057083 -.00000078  00000-0  10000-3 0  9992
2 43246  55.3076   1.8723 0003876  10.3386  31.5512  1.86233059 22472
BEIDOU IGSO-7 (C16)     
1 43539U 18057A   21201.81452363 -.00000085  00000-0  00000+0 0  9996
2 43539  55.0621 178.6527 0039196 223.9931 301.7428  1.00258666 11188
BEIDOU-3 M9 (C23)       
1 43581U 18062A   21201.64973170  .00000081  00000-0  00000-0 0  9990
2 43581  54.3889 243.4587 0005628 263.7981  20.6456  1.86231962 20249
BEIDOU-3 M10 (C24)      
1 43582U 18062B   21201.98617043  .00000081  00000-0  00000+0 0  9991
2 43582  54.3873 243.4431 0004439 327.7208 273.6475  1.86232036 20258
BEIDOU-3 M11 (C25)      
1 43602U 18067A   21201.82926297  .00000084  00000-0  00000+0 0  9999
2 43602  54.4647 242.0268 0006370 352.0600 186.2886  1.86231735 19749
BEIDOU-3 M12 (C26)      
1 43603U 18067B   21202.18635431  .00000083  00000-0  00000+0 0  9996
2 43603  54.4616 241.9824 0003953 333.0738 355.1457  1.86231695 19765
BEIDOU-3 M13 (C32)      
1 43622U 18072A   21202.06511365 -.00000043  00000-0  00000+0 0  9996
2 43622  55.3012 122.4987 0007509 293.2729 343.7202  1.86231996 19278
BEIDOU-3 M14 (C33)      
1 43623U 18072B   21201.93009174 -.00000042  00000-0  00000+0 0  9991
2 43623  55.3038 122.4949 0006059 315.8862 320.8161  1.86231990 19277
BEIDOU-3 M15 (C34)      
1 43647U 18078A   21201.74663204 -.00000089  00000-0  10000-3 0  9998
2 43647  55.2029   1.9684 0006257   9.4606  39.4697  1.86232943 18782
BEIDOU-3 M16 (C35)      
1 43648U 18078B   21202.11849503 -.00000092  00000-0  00000+0 0  9998
2 43648  55.2002   1.9623 0004406  26.1390 180.5118  1.86232444 18802
BEIDOU-3 G1 (C59)       
1 43683U 18085A   21201.89158431 -.00000282  00000-0  00000-0 0  9994
2 43683   1.0077 223.0470 0002858 357.6995 179.1351  1.00271519 10088
BEIDOU-3 M17 (C36)      
1 43706U 18093A   21201.96383414  .00000081  00000-0  00000+0 0  9993
2 43706  54.4695 243.3080 0011509 267.5155  92.4384  1.86231633 18149
BEIDOU-3 M18 (C37)      
1 43707U 18093B   21201.71878461  .00000082  00000-0  00000-0 0  9990
2 43707  54.4695 243.3075 0009281 287.3216 359.2237  1.86232184 18149
BEIDOU-3 IGSO-1 (C38)   
1 44204U 19023A   21201.51160806 -.00000222  00000-0  00000-0 0  9999
2 44204  56.0620  56.5574 0018760 189.6288 350.0468  1.00285771  8387
BEIDOU-2 G8             
1 44231U 19027A   21202.17961052 -.00000253  00000-0  00000+0 0  9991
2 44231   0.2563   5.2920 0006198 180.7944 322.2752  1.00269986  8100
BEIDOU-3 IGSO-2 (C39)   
1 44337U 19035A   21202.19717991 -.00000090  00000-0  00000+0 0  9999
2 44337  55.0973 174.6926 0020055 194.2256 108.9065  1.00271749  7724
BEIDOU-3 M23 (C45)      
1 44542U 19061A   21201.78439157  .00000082  00000-0  10000-3 0  9990
2 44542  54.6930 243.3944 0008483 315.4955 327.9471  1.86231231 12409
BEIDOU-3 M24 (C46)      
1 44543U 19061B   21198.14034749  .00000063  00000-0  10000-3 0  9993
2 44543  54.6937 243.4853 0006259 299.0569 332.1215  1.86231620 12332
BEIDOU-3 IGSO-3         
1 44709U 19073A   21201.70674441 -.00000194  00000-0  00000-0 0  9998
2 44709  57.7885 299.8175 0020815 200.7805 159.1119  1.00267469  6485
BEIDOU-3 M21            
1 44793U 19078A   21202.00920876 -.00000091  00000-0  10000-3 0  9996
2 44793  55.0525   2.0209 0006085  15.8914 163.4791  1.86232499 11277
BEIDOU-3 M22            
1 44794U 19078B   21202.04141253 -.00000092  00000-0  00000+0 0  9991
2 44794  55.0271   2.0184 0004064  17.1084  94.9095  1.86233090 11279
BEIDOU-3 M19            
1 44864U 19090A   21201.99654839 -.00000042  00000-0  00000+0 0  9990
2 44864  55.2367 122.7298 0016812 270.3493   6.1751  1.86232016 10856
BEIDOU-3 M20            
1 44865U 19090B   21201.86014149 -.00000041  00000-0  00000+0 0  9990
2 44865  55.2385 122.7652 0015881 285.3824 349.6067  1.86232005 10820
BEIDOU-3 G2             
1 45344U 20017A   21202.16678684 -.00000143  00000-0  00000+0 0  9991
2 45344   2.3868 337.6378 0004155 136.3942 325.1803  1.00270419  5303
BEIDOU-3 G3             
1 45807U 20040A   21201.95744744 -.00000355  00000-0  00000-0 0  9994
2 45807   2.2067 298.6301 0004670 349.0433 106.4138  1.00267205  4117
